 2007  513  142 16.0 L                                                         1
 2007-05-13-0142-16S.CURI__001SH_Z                                             6
 STAT SP IPHASW D HRMM SECON CODA AMPLIT PERI AZIMU VELO AIN AR TRES W  DIS CAZ7
                                                                                
