 2010  912 2116 32.0 L                                                         1
 2010-09-12-2116-32M.POP___020                                                 6
 STAT SP IPHASW D HRMM SECON CODA AMPLIT PERI AZIMU VELO AIN AR TRES W  DIS CAZ7
                                                                                
